{
  "type": "FeatureCollection",
  "features": [
    {
      "type": "Feature",
      "properties": {
        "norad_id": 33886,
        "name": "IRIDIUM 33 DEB",
        "group": "iridium-33-debris",
        "lat": 56.22143747343424,
        "lon": -113.80282067096856,
        "alt_km": 774.3633347183804,
        "timestamp": "2025-12-02T07:10:09.500799+00:00",
        "meta_object_name": "IRIDIUM 33 DEB",
        "meta_object_id": "1997-051BF",
        "meta_epoch": "2025-12-01T19:27:55.995264",
        "meta_mean_motion": 14.36029094,
        "meta_eccentricity": 0.0012043,
        "meta_inclination": 86.3833,
        "meta_ra_of_asc_node": 71.8281,
        "meta_arg_of_pericenter": 283.5471,
        "meta_mean_anomaly": 200.6063,
        "meta_ephemeris_type": 0,
        "meta_classification_type": "U",
        "meta_norad_cat_id": 33886,
        "meta_element_set_no": 999,
        "meta_rev_at_epoch": 87895,
        "meta_bstar": 0.00022861,
        "meta_mean_motion_dot": 6.84e-06,
        "meta_mean_motion_ddot": 0,
        "tle_line1": "1 33886U 97051BF  25335.81106476  .00000684  00000+0  22861-3 0  9990",
        "tle_line2": "2 33886  86.3833  71.8281 0012043 283.5471 200.6063 14.36029094878950"
      },
      "geometry": {
        "type": "Point",
        "coordinates": [
          -113.80282067096856,
          56.22143747343424
        ]
      }
    },
    {
      "type": "Feature",
      "properties": {
        "norad_id": 33887,
        "name": "IRIDIUM 33 DEB",
        "group": "iridium-33-debris",
        "lat": 15.741368302893328,
        "lon": 8.935127558291969,
        "alt_km": 768.9576397446763,
        "timestamp": "2025-12-02T07:10:09.500811+00:00",
        "meta_object_name": "IRIDIUM 33 DEB",
        "meta_object_id": "1997-051BG",
        "meta_epoch": "2025-12-01T20:13:12.544320",
        "meta_mean_motion": 14.37204978,
        "meta_eccentricity": 0.0004044,
        "meta_inclination": 86.3053,
        "meta_ra_of_asc_node": 8.088,
        "meta_arg_of_pericenter": 279.1421,
        "meta_mean_anomaly": 257.7662,
        "meta_ephemeris_type": 0,
        "meta_classification_type": "U",
        "meta_norad_cat_id": 33887,
        "meta_element_set_no": 999,
        "meta_rev_at_epoch": 88008,
        "meta_bstar": 0.0001583,
        "meta_mean_motion_dot": 4.91e-06,
        "meta_mean_motion_ddot": 0,
        "tle_line1": "1 33887U 97051BG  25335.84250630  .00000491  00000+0  15830-3 0  9990",
        "tle_line2": "2 33887  86.3053   8.0880 0004044 279.1421 257.7662 14.37204978880082"
      },
      "geometry": {
        "type": "Point",
        "coordinates": [
          8.935127558291969,
          15.741368302893328
        ]
      }
    },
    {
      "type": "Feature",
      "properties": {
        "norad_id": 33953,
        "name": "IRIDIUM 33 DEB",
        "group": "iridium-33-debris",
        "lat": -83.86544138219513,
        "lon": 22.282929954469957,
        "alt_km": 726.4148722061072,
        "timestamp": "2025-12-02T07:10:09.500822+00:00",
        "meta_object_name": "IRIDIUM 33 DEB",
        "meta_object_id": "1997-051BN",
        "meta_epoch": "2025-12-01T11:49:34.999680",
        "meta_mean_motion": 14.55133088,
        "meta_eccentricity": 0.00184148,
        "meta_inclination": 86.3852,
        "meta_ra_of_asc_node": 58.6594,
        "meta_arg_of_pericenter": 137.1795,
        "meta_mean_anomaly": 238.3819,
        "meta_ephemeris_type": 0,
        "meta_classification_type": "U",
        "meta_norad_cat_id": 33953,
        "meta_element_set_no": 999,
        "meta_rev_at_epoch": 88140,
        "meta_bstar": 0.0015798545,
        "meta_mean_motion_dot": 6.858e-05,
        "meta_mean_motion_ddot": 0,
        "tle_line1": "1 33953U 97051BN  25335.49276620  .00006858  00000+0  15799-2 0  9998",
        "tle_line2": "2 33953  86.3852  58.6594 0018414 137.1795 238.3819 14.55133088881408"
      },
      "geometry": {
        "type": "Point",
        "coordinates": [
          22.282929954469957,
          -83.86544138219513
        ]
      }
    },
    {
      "type": "Feature",
      "properties": {
        "norad_id": 33960,
        "name": "IRIDIUM 33 DEB",
        "group": "iridium-33-debris",
        "lat": 51.013244903216616,
        "lon": -60.92158371509076,
        "alt_km": 606.8110891263032,
        "timestamp": "2025-12-02T07:10:09.500833+00:00",
        "meta_object_name": "IRIDIUM 33 DEB",
        "meta_object_id": "1997-051BV",
        "meta_epoch": "2025-12-01T15:33:28.362816",
        "meta_mean_motion": 14.84254066,
        "meta_eccentricity": 0.00069003,
        "meta_inclination": 86.2525,
        "meta_ra_of_asc_node": 294.7399,
        "meta_arg_of_pericenter": 77.5875,
        "meta_mean_anomaly": 100.2363,
        "meta_ephemeris_type": 0,
        "meta_classification_type": "U",
        "meta_norad_cat_id": 33960,
        "meta_element_set_no": 999,
        "meta_rev_at_epoch": 88702,
        "meta_bstar": 0.0032348033,
        "meta_mean_motion_dot": 0.00027199,
        "meta_mean_motion_ddot": 0,
        "tle_line1": "1 33960U 97051BV  25335.64824494  .00027199  00000+0  32348-2 0  9991",
        "tle_line2": "2 33960  86.2525 294.7399 0006900  77.5875 100.2363 14.84254066887028"
      },
      "geometry": {
        "type": "Point",
        "coordinates": [
          -60.92158371509076,
          51.013244903216616
        ]
      }
    },
    {
      "type": "Feature",
      "properties": {
        "norad_id": 33966,
        "name": "IRIDIUM 33 DEB",
        "group": "iridium-33-debris",
        "lat": -73.73797026859144,
        "lon": -117.00580367590894,
        "alt_km": 730.6869356713578,
        "timestamp": "2025-12-02T07:10:09.500843+00:00",
        "meta_object_name": "IRIDIUM 33 DEB",
        "meta_object_id": "1997-051CB",
        "meta_epoch": "2025-12-01T15:37:57.426240",
        "meta_mean_motion": 14.49515287,
        "meta_eccentricity": 0.00062353,
        "meta_inclination": 86.3934,
        "meta_ra_of_asc_node": 50.7847,
        "meta_arg_of_pericenter": 229.0544,
        "meta_mean_anomaly": 249.0715,
        "meta_ephemeris_type": 0,
        "meta_classification_type": "U",
        "meta_norad_cat_id": 33966,
        "meta_element_set_no": 999,
        "meta_rev_at_epoch": 88281,
        "meta_bstar": 0.0006195358,
        "meta_mean_motion_dot": 2.394e-05,
        "meta_mean_motion_ddot": 0,
        "tle_line1": "1 33966U 97051CB  25335.65135910  .00002394  00000+0  61954-3 0  9992",
        "tle_line2": "2 33966  86.3934  50.7847 0006235 229.0544 249.0715 14.49515287882816"
      },
      "geometry": {
        "type": "Point",
        "coordinates": [
          -117.00580367590894,
          -73.73797026859144
        ]
      }
    },
    {
      "type": "Feature",
      "properties": {
        "norad_id": 34071,
        "name": "IRIDIUM 33 DEB",
        "group": "iridium-33-debris",
        "lat": -34.682184391851145,
        "lon": 19.83261344638486,
        "alt_km": 740.550885214835,
        "timestamp": "2025-12-02T07:10:09.500854+00:00",
        "meta_object_name": "IRIDIUM 33 DEB",
        "meta_object_id": "1997-051CE",
        "meta_epoch": "2025-12-01T14:45:36.923616",
        "meta_mean_motion": 14.49382565,
        "meta_eccentricity": 0.00093777,
        "meta_inclination": 86.347,
        "meta_ra_of_asc_node": 22.6632,
        "meta_arg_of_pericenter": 137.8371,
        "meta_mean_anomaly": 222.3556,
        "meta_ephemeris_type": 0,
        "meta_classification_type": "U",
        "meta_norad_cat_id": 34071,
        "meta_element_set_no": 999,
        "meta_rev_at_epoch": 88173,
        "meta_bstar": 0.00062691272,
        "meta_mean_motion_dot": 2.416e-05,
        "meta_mean_motion_ddot": 0,
        "tle_line1": "1 34071U 97051CE  25335.61501069  .00002416  00000+0  62691-3 0  9992",
        "tle_line2": "2 34071  86.3470  22.6632 0009377 137.8371 222.3556 14.49382565881731"
      },
      "geometry": {
        "type": "Point",
        "coordinates": [
          19.83261344638486,
          -34.682184391851145
        ]
      }
    },
    {
      "type": "Feature",
      "properties": {
        "norad_id": 34077,
        "name": "IRIDIUM 33 DEB",
        "group": "iridium-33-debris",
        "lat": -45.799506069556884,
        "lon": 52.37981718329407,
        "alt_km": 689.0218846896778,
        "timestamp": "2025-12-02T07:10:09.500865+00:00",
        "meta_object_name": "IRIDIUM 33 DEB",
        "meta_object_id": "1997-051CL",
        "meta_epoch": "2025-12-01T18:50:15.130176",
        "meta_mean_motion": 14.6453586,
        "meta_eccentricity": 0.0011041,
        "meta_inclination": 86.3871,
        "meta_ra_of_asc_node": 56.3311,
        "meta_arg_of_pericenter": 73.7314,
        "meta_mean_anomaly": 53.2582,
        "meta_ephemeris_type": 0,
        "meta_classification_type": "U",
        "meta_norad_cat_id": 34077,
        "meta_element_set_no": 999,
        "meta_rev_at_epoch": 88172,
        "meta_bstar": 0.001689,
        "meta_mean_motion_dot": 8.988e-05,
        "meta_mean_motion_ddot": 0,
        "tle_line1": "1 34077U 97051CL  25335.78489734  .00008988  00000+0  16890-2 0  9999",
        "tle_line2": "2 34077  86.3871  56.3311 0011041  73.7314  53.2582 14.64535860881720"
      },
      "geometry": {
        "type": "Point",
        "coordinates": [
          52.37981718329407,
          -45.799506069556884
        ]
      }
    }
  ]
}